{
  "links" : {
    "next" : "https://api.nasa.gov/neo/rest/v1/feed?start_date=2012-04-16&end_date=2012-04-16&detailed=true&api_key=t0TVs3DtDT2H8Oy2Zy8m2eVrNsAVKAexjcZXUckd",
    "prev" : "https://api.nasa.gov/neo/rest/v1/feed?start_date=2012-04-14&end_date=2012-04-14&detailed=true&api_key=t0TVs3DtDT2H8Oy2Zy8m2eVrNsAVKAexjcZXUckd",
    "self" : "https://api.nasa.gov/neo/rest/v1/feed?start_date=2012-04-15&end_date=2012-04-15&detailed=true&api_key=t0TVs3DtDT2H8Oy2Zy8m2eVrNsAVKAexjcZXUckd"
  },
  "element_count" : 9,
  "near_earth_objects" : {
    "2012-04-15" : [ {
      "links" : {
        "self" : "https://api.nasa.gov/neo/rest/v1/neo/3584579?api_key=t0TVs3DtDT2H8Oy2Zy8m2eVrNsAVKAexjcZXUckd"
      },
      "neo_reference_id" : "3584579",
      "name" : "(2011 UD256)",
      "nasa_jpl_url" : "http://ssd.jpl.nasa.gov/sbdb.cgi?sstr=3584579",
      "absolute_magnitude_h" : 19.9,
      "estimated_diameter" : {
        "kilometers" : {
          "estimated_diameter_min" : 0.2783267681,
          "estimated_diameter_max" : 0.6223575734
        },
        "meters" : {
          "estimated_diameter_min" : 278.3267680719,
          "estimated_diameter_max" : 622.3575733667
        },
        "miles" : {
          "estimated_diameter_min" : 0.1729441822,
          "estimated_diameter_max" : 0.3867149477
        },
        "feet" : {
          "estimated_diameter_min" : 913.1455937611,
          "estimated_diameter_max" : 2041.8556210042
        }
      },
      "is_potentially_hazardous_asteroid" : false,
      "close_approach_data" : [ {
        "close_approach_date" : "2012-04-15",
        "epoch_date_close_approach" : 1334473200000,
        "relative_velocity" : {
          "kilometers_per_second" : "33.5622587798",
          "kilometers_per_hour" : "120824.1316072951",
          "miles_per_hour" : "75075.416664544"
        },
        "miss_distance" : {
          "astronomical" : "0.4071658258",
          "lunar" : "158.387512207",
          "kilometers" : "60911140",
          "miles" : "37848428"
        },
        "orbiting_body" : "Earth"
      } ],
      "orbital_data" : {
        "orbit_id" : "12",
        "orbit_determination_date" : "2017-04-06 08:52:08",
        "orbit_uncertainty" : "3",
        "minimum_orbit_intersection" : ".359537",
        "jupiter_tisserand_invariant" : "4.146",
        "epoch_osculation" : "2458000.5",
        "eccentricity" : ".5994258831063287",
        "semi_major_axis" : "1.457963584372546",
        "inclination" : "47.04711483626647",
        "ascending_node_longitude" : "216.3547064971875",
        "orbital_period" : "643.0110584589469",
        "perihelion_distance" : ".5840224752731644",
        "perihelion_argument" : "323.0397467255989",
        "aphelion_distance" : "2.331904693471929",
        "perihelion_time" : "2457946.496731238303",
        "mean_anomaly" : "30.23459161154081",
        "mean_motion" : ".5598659545028404",
        "equinox" : "J2000"
      }
    }, {
      "links" : {
        "self" : "https://api.nasa.gov/neo/rest/v1/neo/3599933?api_key=t0TVs3DtDT2H8Oy2Zy8m2eVrNsAVKAexjcZXUckd"
      },
      "neo_reference_id" : "3599933",
      "name" : "(2012 DX32)",
      "nasa_jpl_url" : "http://ssd.jpl.nasa.gov/sbdb.cgi?sstr=3599933",
      "absolute_magnitude_h" : 21.3,
      "estimated_diameter" : {
        "kilometers" : {
          "estimated_diameter_min" : 0.1460679643,
          "estimated_diameter_max" : 0.3266178974
        },
        "meters" : {
          "estimated_diameter_min" : 146.0679642714,
          "estimated_diameter_max" : 326.6178974458
        },
        "miles" : {
          "estimated_diameter_min" : 0.090762397,
          "estimated_diameter_max" : 0.2029508896
        },
        "feet" : {
          "estimated_diameter_min" : 479.2256199,
          "estimated_diameter_max" : 1071.581062656
        }
      },
      "is_potentially_hazardous_asteroid" : false,
      "close_approach_data" : [ {
        "close_approach_date" : "2012-04-15",
        "epoch_date_close_approach" : 1334473200000,
        "relative_velocity" : {
          "kilometers_per_second" : "2.437046405",
          "kilometers_per_hour" : "8773.3670581073",
          "miles_per_hour" : "5451.4291034112"
        },
        "miss_distance" : {
          "astronomical" : "0.2569785024",
          "lunar" : "99.9646377563",
          "kilometers" : "38443440",
          "miles" : "23887646"
        },
        "orbiting_body" : "Earth"
      } ],
      "orbital_data" : {
        "orbit_id" : "17",
        "orbit_determination_date" : "2017-04-06 08:50:45",
        "orbit_uncertainty" : "1",
        "minimum_orbit_intersection" : ".217963",
        "jupiter_tisserand_invariant" : "3.680",
        "epoch_osculation" : "2458000.5",
        "eccentricity" : ".4079775793783065",
        "semi_major_axis" : "2.05369028224012",
        "inclination" : "1.445693989864269",
        "ascending_node_longitude" : "127.4630708474816",
        "orbital_period" : "1074.981150322441",
        "perihelion_distance" : "1.215830692099045",
        "perihelion_argument" : "67.60561665289718",
        "aphelion_distance" : "2.891549872381196",
        "perihelion_time" : "2458163.907936366150",
        "mean_anomaly" : "305.2763826843207",
        "mean_motion" : ".3348895930798579",
        "equinox" : "J2000"
      }
    }, {
      "links" : {
        "self" : "https://api.nasa.gov/neo/rest/v1/neo/3602022?api_key=t0TVs3DtDT2H8Oy2Zy8m2eVrNsAVKAexjcZXUckd"
      },
      "neo_reference_id" : "3602022",
      "name" : "(2012 FE58)",
      "nasa_jpl_url" : "http://ssd.jpl.nasa.gov/sbdb.cgi?sstr=3602022",
      "absolute_magnitude_h" : 20.7,
      "estimated_diameter" : {
        "kilometers" : {
          "estimated_diameter_min" : 0.1925550782,
          "estimated_diameter_max" : 0.4305662442
        },
        "meters" : {
          "estimated_diameter_min" : 192.5550781879,
          "estimated_diameter_max" : 430.566244241
        },
        "miles" : {
          "estimated_diameter_min" : 0.1196481415,
          "estimated_diameter_max" : 0.2675413778
        },
        "feet" : {
          "estimated_diameter_min" : 631.7424027221,
          "estimated_diameter_max" : 1412.6189567557
        }
      },
      "is_potentially_hazardous_asteroid" : false,
      "close_approach_data" : [ {
        "close_approach_date" : "2012-04-15",
        "epoch_date_close_approach" : 1334473200000,
        "relative_velocity" : {
          "kilometers_per_second" : "5.9859745877",
          "kilometers_per_hour" : "21549.5085158698",
          "miles_per_hour" : "13390.0265553192"
        },
        "miss_distance" : {
          "astronomical" : "0.1658156848",
          "lunar" : "64.5022964478",
          "kilometers" : "24805674",
          "miles" : "15413531"
        },
        "orbiting_body" : "Earth"
      } ],
      "orbital_data" : {
        "orbit_id" : "20",
        "orbit_determination_date" : "2017-04-06 08:50:16",
        "orbit_uncertainty" : "5",
        "minimum_orbit_intersection" : ".146921",
        "jupiter_tisserand_invariant" : "3.480",
        "epoch_osculation" : "2458000.5",
        "eccentricity" : ".4845267424259161",
        "semi_major_axis" : "2.215547428104919",
        "inclination" : "7.804510617571244",
        "ascending_node_longitude" : "223.0825526505687",
        "orbital_period" : "1204.536609207924",
        "perihelion_distance" : "1.142055450075126",
        "perihelion_argument" : "337.79681749",
        "aphelion_distance" : "3.289039406134713",
        "perihelion_time" : "2458432.506783676412",
        "mean_anomaly" : "230.8860810583611",
        "mean_motion" : ".298870119220974",
        "equinox" : "J2000"
      }
    } ]
  }
}